0 RADUGA 23
1 19928U 89030A   13281.69343824 -.00000352  00000-0  10000-3 0  4724
2 19928 014.4438 014.4036 0023460 079.9005 280.3682 01.00214417 88384
0 RADUGA 23
1 19928U 89030A   13287.68041226 -.00000357  00000-0  10000-3 0  4736
2 19928 014.4484 014.3383 0023230 079.8845 280.3467 01.00210811 88447
0 RADUGA 23
1 19928U 89030A   13289.67617180 -.00000355  00000-0  10000-3 0  4744
2 19928 014.4497 014.3219 0023482 079.8524 280.3913 01.00209940 88461
0 RADUGA 23
1 19928U 89030A   13290.67404063 -.00000353  00000-0  10000-3 0  4759
2 19928 014.4506 014.3084 0023429 080.3564 279.8829 01.00209312 88477
0 RADUGA 23
1 19928U 89030A   13291.67192648 -.00000351  00000-0  10000-3 0  4762
2 19928 014.4515 014.2968 0023259 080.5020 279.7373 01.00208757 88483
0 RADUGA 23
1 19928U 89030A   13294.66558949 -.00000343  00000-0  10000-3 0  4776
2 19928 014.4538 014.2638 0023180 081.2666 279.0082 01.00208049 88517
